satname,norad_id,inclination_deg,eccentricity,mean_motion_rev_per_day,perigee_km,apogee_km,l1,l2
STARLINK-1297,45395,53.055,0.0001236,15.26706874,484.8164294162525,486.5131612200548,1 45395U 20019AM  26016.58336806  .01066022  00000+0  37141-1 0  9995,2 45395  53.0550  19.7596 0001236  84.9161   1.7811 15.26706874  5834
STARLINK-1307,45397,53.0577,9.17e-05,15.30309672,474.2592057942411,475.51605051104434,1 45397U 20019AP  26016.58336806  .01983515  00000+0  60313-1 0  9999,2 45397  53.0577  19.4051 0000917  58.2362 250.5396 15.30309672  5832
STARLINK-1255,45399,53.0479,0.0005999,15.42699843,434.0559367399701,442.2341119127577,1 45399U 20019AR  26016.35649228  .00013874  00000+0  32173-3 0  9997,2 45399  53.0479 352.7267 0005999  61.7837 298.3773 15.42699843322339
STARLINK-1260,45404,53.0698,0.0001846,15.10985848,531.9163223308951,534.4679850544389,1 45404U 20019AW  26016.58336806  .00010729  00000+0  65184-3 0  9998,2 45404  53.0698  10.5069 0001846  58.0215  38.8224 15.10985848  5732
STARLINK-1263,45405,53.0703,0.0002837,15.11075527,530.9580363895811,534.8793693954021,1 45405U 20019AX  26016.58336806  .00010680  00000+0  64733-3 0  9994,2 45405  53.0703  10.5033 0002837  77.8503 100.4709 15.11075527  5831
STARLINK-1265,45406,53.0652,0.0002114,15.0806199,540.6595337454801,543.5854194521853,1 45406U 20019AY  26016.62521398  .00185729  00000+0  11628-1 0  9992,2 45406  53.0652  10.3260 0002114 124.1846 235.9344 15.08061990322015
STARLINK-1278,45408,53.0501,0.0004583,15.44792546,428.8666227265385,435.1087830291963,1 45408U 20019BA  26016.37449404  .00100652  00000+0  20969-2 0  9994,2 45408  53.0501  21.6012 0004583 339.9146  20.1679 15.44792546321844
STARLINK-1296,45412,53.0848,0.0002185,15.1381132,523.081406214279,526.0978977611976,1 45412U 20019BE  26016.58336806  .00011216  00000+0  62948-3 0  9994,2 45412  53.0848  10.3757 0002185  70.1034 118.2406 15.13811320  5833
STARLINK-1298,45413,53.0442,0.0008492,15.72383764,346.3709999446328,357.8016112068217,1 45413U 20019BF  26016.58336806  .00166780  00000+0  12083-2 0  9996,2 45413  53.0442 316.7107 0008492 108.1923 139.5230 15.72383764  6004
STARLINK-1309,45414,53.0655,2.89e-05,15.10468061,534.5717450722796,534.9713111852061,1 45414U 20019BG  26016.58336806  .00009699  00000+0  59945-3 0  9991,2 45414  53.0655  10.5135 0000289 345.2804  47.7382 15.10468061  5732
STARLINK-1316,45415,53.0639,0.000224,15.09935612,534.8477109723308,537.9454220101188,1 45415U 20019BH  26016.58336806  .00005162  00000+0  33222-3 0  9993,2 45415  53.0639  10.5173 0002240 101.7457 148.0728 15.09935612  5823
STARLINK-1318,45416,53.0457,0.0005332,15.78406075,331.37681170505493,338.5356543287435,1 45416U 20019BJ  26016.49955253  .00129884  00000+0  72841-3 0  9995,2 45416  53.0457 304.7152 0005332 112.4413 247.7173 15.78406075322930
STARLINK-1286,45417,53.052,0.0002373,15.44751468,430.4923609012667,433.7245033833615,1 45417U 20019BK  26016.27142953  .00018369  00000+0  39471-3 0  9994,2 45417  53.0520  21.7799 0002373   6.2537 353.8497 15.44751468322103
STARLINK-1308,45419,53.0585,0.0001323,15.31013061,471.8821128092786,473.6948676939992,1 45419U 20019BM  26016.58336806  .00015806  00000+0  53115-3 0  9996,2 45419  53.0585  39.4650 0001323  92.6914 154.8959 15.31013061  5836
STARLINK-1329,45531,53.0551,0.0006015,15.45554287,425.6549522921878,433.8448402283884,1 45531U 20025A   26016.56718998  .00112983  00000+0  22882-2 0  9992,2 45531  53.0551 331.7263 0006015  68.2425 291.9221 15.45554287317365
STARLINK-1338,45532,53.0549,0.0003993,15.44300163,430.71532040893726,436.15504195282847,1 45532U 20025B   26016.26214619  .00105124  00000+0  22255-2 0  9994,2 45532  53.0549 336.0806 0003993  96.2498 263.8963 15.44300163317279
STARLINK-1350,45535,53.0739,0.0002244,15.34597605,460.58102675912505,463.6509322963366,1 45535U 20025E   26016.45521307  .00008427  00000+0  25866-3 0  9993,2 45535  53.0739 278.1825 0002244 108.8618 251.2627 15.34597605318134
STARLINK-1362,45538,53.0575,0.0001426,15.06402038,546.2177579551862,548.1928655825031,1 45538U 20025H   26016.58478385  .00001036  00000+0  88433-4 0  9996,2 45538  53.0575 340.2447 0001426  87.3281 272.7871 15.06402038317248
STARLINK-1368,45540,53.0541,0.0001315,15.06400424,546.2995752751649,548.1209416041347,1 45540U 20025K   26016.58945116  .00000982  00000+0  84825-4 0  9990,2 45540  53.0541 340.5033 0001315  86.1505 273.9634 15.06400424317237
STARLINK-1371,45542,53.055,0.0002521,15.3956556,445.67233462988133,449.11376688147266,1 45542U 20025M   26016.61501211  .00096238  00000+0  23897-2 0  9999,2 45542  53.0550 336.7569 0002521  84.7765 275.3526 15.39565560317293
STARLINK-1372,45543,53.0566,0.0001376,15.06406831,546.2376969054503,548.1435470670212,1 45543U 20025N   26016.59682498 -.00000315  00000+0 -22289-5 0  9994,2 45543  53.0566 340.4719 0001376  90.9671 269.1476 15.06406831316330
STARLINK-1373,45544,53.0549,0.0001926,15.40619578,442.96556478305047,445.5935596428153,1 45544U 20025P   26016.58173315  .00032907  00000+0  80224-3 0  9998,2 45544  53.0549 337.3769 0001926  91.9636 268.1588 15.40619578317285
STARLINK-1294,45551,53.0386,0.0003731,15.76866534,336.81869700104835,341.8312671320673,1 45551U 20025W   26016.63863055  .00112308  00000+0  67674-3 0  9997,2 45551  53.0386 239.6312 0003731 208.1443 151.9375 15.76866534318665
STARLINK-1325,45554,53.0395,0.0007758,15.95589003,281.5031347442191,291.8442550183963,1 45554U 20025Z   26016.58336806  .00354178  61037-4  86692-3 0  9999,2 45554  53.0395 227.6566 0007758 174.1245  88.3115 15.95589003  6013
STARLINK-1327,45555,53.0555,0.0003013,15.43680094,433.2062415770097,437.3119940776123,1 45555U 20025AA  26016.37934288  .00054664  00000+0  11940-2 0  9993,2 45555  53.0555 317.1304 0003013  98.6023 261.5324 15.43680094317546
STARLINK-1356,45564,53.0533,0.000199,15.21793894,499.06081688755603,501.798486414913,1 45564U 20025AK  26016.58336806  .01631911  00000+0  64259-1 0  9995,2 45564  53.0533 320.0736 0001990  98.4919  95.1747 15.21793894  5675
STARLINK-1357,45565,53.0598,0.0005779,15.45270058,426.6499154697867,434.51943598259004,1 45565U 20025AL  26016.03477149  .00015425  00000+0  32711-3 0  9997,2 45565  53.0598 290.6373 0005779  94.3314 265.8352 15.45270058317895
STARLINK-1361,45567,53.055,0.0001097,15.12552986,527.6598497938921,529.175147850935,1 45567U 20025AN  26014.46738739  .00178311  00000+0  98770-2 0  9999,2 45567  53.0550 329.8318 0001097 114.2071 245.9036 15.12552986317200
STARLINK-1363,45568,53.0511,0.0003446,15.56197418,396.33882599374465,401.0094042142746,1 45568U 20025AP  26016.60870601  .00395395  00000+0  52788-2 0  9995,2 45568  53.0511 295.0386 0003446  50.7470 309.3846 15.56197418317874
STARLINK-1366,45569,53.0503,0.0010222,15.55156533,394.7672984503688,408.62799239947435,1 45569U 20025AQ  26016.41689081  .00275176  00000+0  38721-2 0  9990,2 45569  53.0503 296.5710 0010222  77.3052 282.9100 15.55156533317831
STARLINK-1376,45570,53.1624,0.0001663,15.29338326,476.64894007665134,478.9292210910544,1 45570U 20025AR  26016.58336806  .00001139  00000+0  51837-4 0  9995,2 45570  53.1624 319.5207 0001663  78.3914 357.9593 15.29338326  5737
STARLINK-1320,45572,53.0523,0.0006949,15.56193347,393.9767195954928,403.3951481089616,1 45572U 20025AT  26015.92316084  .00104511  00000+0  14517-2 0  9990,2 45572  53.0523 243.8615 0006949 149.7541 210.3872 15.56193347318550
STARLINK-1321,45573,53.0559,0.0003063,15.40069285,443.8144386220238,447.9948465322668,1 45573U 20025AU  26016.51850537  .00060190  00000+0  14806-2 0  9998,2 45573  53.0559 306.5326 0003063  94.0689 266.0664 15.40069285317401
STARLINK-1331,45578,53.0558,0.0001115,15.12133249,528.9252944234631,530.4657410749223,1 45578U 20025AZ  26016.58336806  .00018845  00000+0  10952-2 0  9996,2 45578  53.0558 310.4238 0001115 103.9975  24.7371 15.12133249  5808
STARLINK-1333,45580,53.1442,0.000181,15.26973653,483.62311444896295,486.1075212880314,1 45580U 20025BB  26016.58336806  .01484996  00000+0  50607-1 0  9994,2 45580  53.1442 319.7730 0001810  77.8243  18.0042 15.26973653  5809
STARLINK-1335,45581,53.0545,0.000159,15.06412507,546.0721017238848,548.2743503757683,1 45581U 20025BC  26016.51480544  .00003708  00000+0  26759-3 0  9997,2 45581  53.0545 310.8403 0001590  83.2801 276.8369 15.06412507317646
STARLINK-1337,45582,53.055,0.0002251,15.1576752,517.0969516497998,520.2018848953057,1 45582U 20025BD  26016.58336806  .00049721  00000+0  25731-2 0  9999,2 45582  53.0550 310.2341 0002251  93.5520 314.2689 15.15767520  5829
STARLINK-1347,45586,53.0518,0.0006191,15.43984486,430.14597528008926,438.58121351607224,1 45586U 20025BH  26016.02286500  .00013988  00000+0  31067-3 0  9993,2 45586  53.0518 281.7222 0006191 103.4467 256.7229 15.43984486318005
STARLINK-1364,45589,53.0553,0.0001177,15.19137219,507.6362803346783,509.2573821685555,1 45589U 20025BL  26016.58336806  .00049648  00000+0  23332-2 0  9999,2 45589  53.0553 310.1522 0001177  97.0921 332.6160 15.19137219  5793
STARLINK-1365,45590,53.0555,7.7e-05,15.21545033,500.6499539748693,501.7093687407187,1 45590U 20025BM  26016.58336806  .01630150  00000+0  64653-1 0  9996,2 45590  53.0555 340.0951 0000770  40.2630 331.4602 15.21545033  5833
STARLINK-1443,45660,53.0552,0.0001377,15.06400777,546.2555563776987,548.1627967147197,1 45660U 20035D   26016.47519134  .00002010  00000+0  15379-3 0  9990,2 45660  53.0552 301.0177 0001377  95.3256 264.7891 15.06400777310862
STARLINK-1446,45663,53.0249,0.0005983,15.40334393,441.03927084673523,449.20398211918473,1 45663U 20035G   26016.62503815  .00012393  00000+0  31183-3 0  9995,2 45663  53.0249 246.2360 0005983 108.2981 251.8674 15.40334393311649
STARLINK-1448,45665,53.0542,0.0003508,15.12262391,526.8791123944584,531.7253717667027,1 45665U 20035J   26014.20565955  .00038036  00000+0  21793-2 0  9999,2 45665  53.0542 311.0234 0003508 118.9124 241.2220 15.12262391310518
